IXPE                    
1 49954U 21121A   24248.58334491  .00015743  00000+0  11752-2 0  9992
2 49954   0.2296 163.6277 0009284  16.2891 115.2871 14.99589684  4400
